NORAD_CAT_ID,OBJECT_NAME,OBJECT_TYPE,EPOCH,MEAN_MOTION,ECCENTRICITY,INCLINATION,RA_OF_ASC_NODE,ARG_OF_PERICENTER,MEAN_ANOMALY,BSTAR,MEAN_MOTION_DOT,MEAN_MOTION_DDOT,TLE_LINE0,TLE_LINE1,TLE_LINE2,SEMIMAJOR_AXIS,PERIOD,APOGEE,PERIGEE,DECAYED
56768.0,STARLINK-6198,PAYLOAD,2023-10-30 11:03:06,15.69896407,0.0003145,69.9976,345.4256,269.9686,90.1149,2.0429e-06,3.3e-07,0.0,0 STARLINK-6198,1 56768U 23078B   23303.46049560  .00000033  00000-0  20429-5 0  9995,2 56768  69.9976 345.4256 0003145 269.9686  90.1149 15.69896407 24193,6737.33,91.726,361.314,357.076,0.0
56768.0,STARLINK-6198,PAYLOAD,2023-10-30 15:38:20,15.69929858,0.00034,69.9984,344.8888,268.8471,91.2335,-4.6012e-06,-7.66e-06,0.0,0 STARLINK-6198,1 56768U 23078B   23303.65162689 -.00000766  00000-0 -46012-5 0  9995,2 56768  69.9984 344.8888 0003400 268.8471  91.2335 15.69929858 24220,6737.235,91.724,361.39,356.809,0.0
56768.0,STARLINK-6198,PAYLOAD,2023-10-30 20:13:36,15.69902546,0.0002907,69.9987,344.3515,269.6439,90.4423,4.3133e-05,4.972e-05,0.0,0 STARLINK-6198,1 56768U 23078B   23303.84278657  .00004972  00000-0  43133-4 0  9990,2 56768  69.9987 344.3515 0002907 269.6439  90.4423 15.69902546 23996,6737.313,91.725,361.136,357.219,0.0
56768.0,STARLINK-6198,PAYLOAD,2023-10-31 03:52:20,15.69938779,0.0003005,69.9986,343.4564,268.3343,91.7509,1.1372e-05,1.156e-05,0.0,0 STARLINK-6198,1 56768U 23078B   23304.16135118  .00001156  00000-0  11372-4 0  9991,2 56768  69.9986 343.4564 0003005 268.3343  91.7509 15.69938779 24301,6737.209,91.723,361.099,357.05,0.0
56768.0,STARLINK-6198,PAYLOAD,2023-10-31 13:02:53,15.69915868,0.0002697,69.9985,342.3808,267.8393,92.2494,-7.5968e-06,-1.125e-05,0.0,0 STARLINK-6198,1 56768U 23078B   23304.54366931 -.00001125  00000-0 -75968-5 0  9992,2 56768  69.9985 342.3808 0002697 267.8393  92.2494 15.69915868 24363,6737.275,91.725,360.957,357.323,0.0
56768.0,STARLINK-6198,PAYLOAD,2023-11-01 04:20:23,15.69916397,0.0003802,69.9966,340.5886,279.1826,80.8939,3.0569e-05,3.463e-05,0.0,0 STARLINK-6198,1 56768U 23078B   23305.18082609  .00003463  00000-0  30569-4 0  9992,2 56768  69.9966 340.5886 0003802 279.1826  80.8939 15.69916397 24460,6737.273,91.725,361.7,356.577,0.0
56768.0,STARLINK-6198,PAYLOAD,2023-11-01 11:59:10,15.69902946,0.0002941,69.9978,339.6931,277.6104,82.4758,1.017e-05,1.009e-05,0.0,0 STARLINK-6198,1 56768U 23078B   23305.49942508  .00001009  00000-0  10170-4 0  9999,2 56768  69.9978 339.6931 0002941 277.6104  82.4758 15.69902946 24516,6737.312,91.725,361.158,357.195,0.0
56768.0,STARLINK-6198,PAYLOAD,2023-11-01 19:37:54,15.69926448,0.0003334,69.9996,338.7969,275.6441,84.4374,9.1768e-06,8.91e-06,0.0,0 STARLINK-6198,1 56768U 23078B   23305.81799581  .00000891  00000-0  91768-5 0  9997,2 56768  69.9996 338.7969 0003334 275.6441  84.4374 15.69926448 24560,6737.244,91.724,361.356,356.863,0.0
56768.0,STARLINK-6198,PAYLOAD,2023-11-02 12:27:10,15.69941144,0.0002589,69.9983,336.8272,266.328,93.762,5.5121e-06,4.51e-06,0.0,0 STARLINK-6198,1 56768U 23078B   23306.51887232  .00000451  00000-0  55121-5 0  9991,2 56768  69.9983 336.8272 0002589 266.3280  93.7620 15.69941144 24670,6737.202,91.723,360.812,357.323,0.0
56768.0,STARLINK-6198,PAYLOAD,2023-11-03 05:16:30,15.69894147,0.000258,69.9994,334.8582,258.6878,101.4028,-5.827e-06,-9.12e-06,0.0,0 STARLINK-6198,1 56768U 23078B   23307.21979302 -.00000912  00000-0 -58270-5 0  9991,2 56768  69.9994 334.8582 0002580 258.6878 101.4028 15.69894147 24783,6737.337,91.726,360.94,357.464,0.0
56768.0,STARLINK-6198,PAYLOAD,2023-11-03 09:51:44,15.69908135,0.0002728,69.9989,334.3202,267.9602,92.1281,9.8365e-06,9.7e-06,0.0,0 STARLINK-6198,1 56768U 23078B   23307.41093360  .00000970  00000-0  98365-5 0  9995,2 56768  69.9989 334.3202 0002728 267.9602  92.1281 15.69908135 24817,6737.297,91.725,361.0,357.324,0.0
56768.0,STARLINK-6198,PAYLOAD,2023-11-03 11:23:29,15.69908768,0.000265,69.9993,334.1417,267.6263,92.4629,1.0314e-05,1.027e-05,0.0,0 STARLINK-6198,1 56768U 23078B   23307.47465103  .00001027  00000-0  10314-4 0  9990,2 56768  69.9993 334.1417 0002650 267.6263  92.4629 15.69908768 24565,6737.295,91.725,360.945,357.375,0.0
56768.0,STARLINK-6198,PAYLOAD,2023-11-04 10:19:46,15.699083,0.0002573,70.0016,331.4564,235.7489,124.3464,-3.3742e-06,-6.17e-06,0.0,0 STARLINK-6198,1 56768U 23078B   23308.43039885 -.00000617  00000-0 -33742-5 0  9998,2 56768  70.0016 331.4564 0002573 235.7489 124.3464 15.69908300 24976,6737.296,91.725,360.895,357.428,0.0
56768.0,STARLINK-6198,PAYLOAD,2023-11-04 11:51:30,15.69918722,0.0002575,69.9993,331.2732,238.7952,121.2991,-8.5844e-07,-3.15e-06,0.0,0 STARLINK-6198,1 56768U 23078B   23308.49410857 -.00000315  00000-0 -85844-6 0  9992,2 56768  69.9993 331.2732 0002575 238.7952 121.2991 15.69918722 24725,6737.267,91.724,360.866,357.397,0.0
56768.0,STARLINK-6198,PAYLOAD,2023-11-05 10:47:47,15.69931932,0.0002596,69.9979,328.5858,250.8432,109.2483,3.9663e-05,4.56e-05,0.0,0 STARLINK-6198,1 56768U 23078B   23309.44984962  .00004560  00000-0  39663-4 0  9991,2 56768  69.9979 328.5858 0002596 250.8432 109.2483 15.69931932 25134,6737.229,91.724,360.843,357.345,0.0
56768.0,STARLINK-6198,PAYLOAD,2023-11-05 18:26:33,15.69926942,0.000233,69.9995,327.6917,259.4124,100.6809,5.8773e-06,4.95e-06,0.0,0 STARLINK-6198,1 56768U 23078B   23309.76844265  .00000495  00000-0  58773-5 0  9994,2 56768  69.9995 327.6917 0002330 259.4124 100.6809 15.69926942 25184,6737.243,91.724,360.678,357.538,0.0
56768.0,STARLINK-6198,PAYLOAD,2023-11-06 03:37:02,15.69937707,0.0003174,69.9972,326.6154,268.35,91.7332,-7.206e-06,-1.08e-05,0.0,0 STARLINK-6198,1 56768U 23078B   23310.15072894 -.00001080  00000-0 -72060-5 0  9998,2 56768  69.9972 326.6154 0003174 268.3500  91.7332 15.69937707 25244,6737.212,91.723,361.216,356.939,0.0
56768.0,STARLINK-6198,PAYLOAD,2023-11-06 11:15:53,15.69861121,0.000278,69.9979,325.7198,265.1217,94.9661,-5.4819e-05,-6.781e-05,0.0,0 STARLINK-6198,1 56768U 23078B   23310.46936613 -.00006781  00000-0 -54819-4 0  9994,2 56768  69.9979 325.7198 0002780 265.1217  94.9661 15.69861121 25292,6737.431,91.728,361.169,357.423,0.0
56768.0,STARLINK-6198,PAYLOAD,2023-11-06 18:54:38,15.69883962,0.000255,70.0005,324.8242,261.9409,98.1497,-3.7338e-05,-4.691e-05,0.0,0 STARLINK-6198,1 56768U 23078B   23310.78794038 -.00004691  00000-0 -37338-4 0  9997,2 56768  70.0005 324.8242 0002550 261.9409  98.1497 15.69883962 25343,6737.366,91.727,360.949,357.513,0.0
56768.0,STARLINK-6198,PAYLOAD,2023-11-07 04:05:05,15.69935321,0.0002627,69.9974,323.7472,258.4175,101.6726,-4.4977e-06,-7.53e-06,0.0,0 STARLINK-6198,1 56768U 23078B   23311.17020647 -.00000753  00000-0 -44977-5 0  9992,2 56768  69.9974 323.7472 0002627 258.4175 101.6726 15.69935321 25403,6737.219,91.724,360.854,357.314,0.0
56768.0,STARLINK-6198,PAYLOAD,2023-11-07 10:12:04,15.69950721,0.0003013,69.9969,323.0316,263.6881,96.3972,1.221e-05,1.257e-05,0.0,0 STARLINK-6198,1 56768U 23078B   23311.42505658  .00001257  00000-0  12210-4 0  9992,2 56768  69.9969 323.0316 0003013 263.6881  96.3972 15.69950721 25447,6737.175,91.723,361.07,357.01,0.0
56768.0,STARLINK-6198,PAYLOAD,2023-11-07 17:50:52,15.69924477,0.0002269,69.9995,322.1379,273.1992,86.8944,5.2977e-06,4.25e-06,0.0,0 STARLINK-6198,1 56768U 23078B   23311.74365904  .00000425  00000-0  52977-5 0  9996,2 56768  69.9995 322.1379 0002269 273.1992  86.8944 15.69924477 25493,6737.25,91.724,360.644,357.586,0.0
56768.0,STARLINK-6198,PAYLOAD,2023-11-08 03:01:22,15.69934923,0.0003079,69.9979,321.0618,275.6341,84.4503,-8.1983e-06,-1.199e-05,0.0,0 STARLINK-6198,1 56768U 23078B   23312.12595179 -.00001199  00000-0 -81983-5 0  9998,2 56768  69.9979 321.0618 0003079 275.6341  84.4503 15.69934923 25553,6737.22,91.724,361.16,357.011,0.0
56768.0,STARLINK-6198,PAYLOAD,2023-11-08 10:40:07,15.69925171,0.000282,69.9986,320.166,278.3679,81.7197,1.5676e-05,1.673e-05,0.0,0 STARLINK-6198,1 56768U 23078B   23312.44453665  .00001673  00000-0  15676-4 0  9996,2 56768  69.9986 320.1660 0002820 278.3679  81.7197 15.69925171 25346,6737.248,91.724,361.013,357.213,0.0
56768.0,STARLINK-6198,PAYLOAD,2023-11-08 18:18:54,15.69900249,0.0002599,69.9987,319.2712,271.7671,88.3227,5.5766e-05,6.491e-05,0.0,0 STARLINK-6198,1 56768U 23078B   23312.76312819  .00006491  00000-0  55766-4 0  9993,2 56768  69.9987 319.2712 0002599 271.7671  88.3227 15.69900249 25656,6737.319,91.726,360.935,357.433,0.0
56768.0,STARLINK-6198,PAYLOAD,2023-11-09 09:36:33,15.69808837,0.0002737,70.0,317.4818,277.4617,82.6268,-0.00013049,-0.00015796,0.0,0 STARLINK-6198,1 56768U 23078B   23313.40039268 -.00015796  00000-0 -13049-3 0  9996,2 56768  70.0000 317.4818 0002737 277.4617  82.6268 15.69808837 25752,6737.581,91.731,361.29,357.602,0.0
56768.0,STARLINK-6198,PAYLOAD,2023-11-10 03:58:51,15.68968118,0.0003102,69.9983,315.3346,273.322,86.762,-0.00099898,-0.00114124,0.0,0 STARLINK-6198,1 56768U 23078B   23314.16587040 -.00114124  00000-0 -99898-3 0  9997,2 56768  69.9983 315.3346 0003102 273.3220  86.7620 15.68968118 25872,6739.988,91.78,363.943,359.762,0.0
56768.0,STARLINK-6198,PAYLOAD,2023-11-10 12:00:00,15.67491056,0.0003388,69.9997,314.3953,276.6715,171.3869,-0.0091331,-0.0090711,0.0,0 STARLINK-6198,1 56768U 23078B   23314.50001157 -.00907110  00000-0 -91331-2 0  9993,2 56768  69.9997 314.3953 0003388 276.6715 171.3869 15.67491056 25924,6744.221,91.867,368.371,363.801,0.0
56768.0,STARLINK-6198,PAYLOAD,2023-11-10 14:00:01,15.67353007,0.0003252,69.9996,314.162,272.9968,285.1344,-0.0097468,-0.00957554,0.0,0 STARLINK-6198,1 56768U 23078B   23314.58334491 -.00957554  00000-0 -97468-2 0  9995,2 56768  69.9996 314.1620 0003252 272.9968 285.1344 15.67353007  6048,6744.617,91.875,368.675,364.289,0.0
56768.0,STARLINK-6198,PAYLOAD,2023-11-10 22:00:00,15.6664625,0.0003412,69.9996,313.2287,265.266,12.7046,-0.0089312,-0.00848966,0.0,0 STARLINK-6198,1 56768U 23078B   23314.91667824 -.00848966  00000-0 -89312-2 0  9996,2 56768  69.9996 313.2287 0003412 265.2660  12.7046 15.66646250  6046,6746.645,91.916,370.812,366.208,0.0
